NORAD_CAT_ID,OBJECT_NAME,OBJECT_TYPE,EPOCH,MEAN_MOTION,ECCENTRICITY,INCLINATION,RA_OF_ASC_NODE,ARG_OF_PERICENTER,MEAN_ANOMALY,BSTAR,MEAN_MOTION_DOT,MEAN_MOTION_DDOT,TLE_LINE0,TLE_LINE1,TLE_LINE2,SEMIMAJOR_AXIS,PERIOD,APOGEE,PERIGEE,DECAYED
54196.0,STARLINK-5237,PAYLOAD,2024-07-09 07:14:45,15.08839137,0.0001365,53.216,205.164,88.5235,271.5913,6.5698e-05,7.58e-06,0.0,0 STARLINK-5237,1 54196U 22141AR  24191.30191463  .00000758  00000-0  65698-4 0  9997,2 54196  53.2160 205.1640 0001365  88.5235 271.5913 15.08839137 94385,6917.883,95.438,540.692,538.804,0.0
54196.0,STARLINK-5237,PAYLOAD,2024-07-10 07:05:32,15.08840987,0.0001314,53.2153,200.703,90.4044,269.7099,1.7988e-05,-2e-08,0.0,0 STARLINK-5237,1 54196U 22141AR  24192.29551485 -.00000002  00000-0  17988-4 0  9992,2 54196  53.2153 200.7030 0001314  90.4044 269.7099 15.08840987 94306,6917.877,95.437,540.651,538.833,0.0
54196.0,STARLINK-5237,PAYLOAD,2024-07-11 03:45:33,15.08841382,0.0001276,53.2151,196.8373,89.2166,270.8972,4.1268e-05,3.69e-06,0.0,0 STARLINK-5237,1 54196U 22141AR  24193.15663289  .00000369  00000-0  41268-4 0  9997,2 54196  53.2151 196.8373 0001276  89.2166 270.8972 15.08841382 94669,6917.876,95.437,540.624,538.858,0.0
54196.0,STARLINK-5237,PAYLOAD,2024-07-11 10:07:05,15.08843428,0.000136,53.2157,195.648,92.149,267.9658,5.739e-05,6.26e-06,0.0,0 STARLINK-5237,1 54196U 22141AR  24193.42159069  .00000626  00000-0  57390-4 0  9992,2 54196  53.2157 195.6480 0001360  92.1490 267.9658 15.08843428 94478,6917.87,95.437,540.676,538.794,0.0
54196.0,STARLINK-5237,PAYLOAD,2024-07-12 05:11:43,15.08838038,0.0001422,53.2161,192.0781,96.4345,263.6809,1.0959e-05,-1.14e-06,0.0,0 STARLINK-5237,1 54196U 22141AR  24194.21647627 -.00000114  00000-0  10959-4 0  9995,2 54196  53.2161 192.0781 0001422  96.4345 263.6809 15.08838038 94824,6917.886,95.438,540.735,538.768,0.0
54196.0,STARLINK-5237,PAYLOAD,2024-07-12 06:47:06,15.08836521,0.0001362,53.2157,191.7833,88.8513,271.2635,1.9125e-05,1.6e-07,0.0,0 STARLINK-5237,1 54196U 22141AR  24194.28271742  .00000016  00000-0  19125-4 0  9997,2 54196  53.2157 191.7833 0001362  88.8513 271.2635 15.08836521 94601,6917.891,95.438,540.698,538.814,0.0
54196.0,STARLINK-5237,PAYLOAD,2024-07-12 16:19:25,15.08837507,0.0001384,53.2157,189.9993,89.0174,271.0976,1.2103e-05,-9.5e-07,0.0,0 STARLINK-5237,1 54196U 22141AR  24194.68015784 -.00000095  00000-0  12103-4 0  9990,2 54196  53.2157 189.9993 0001384  89.0174 271.0976 15.08837507 94664,6917.888,95.438,540.71,538.796,0.0
54196.0,STARLINK-5237,PAYLOAD,2024-07-13 06:37:53,15.08841327,0.0001376,53.2156,187.3219,85.8022,274.3128,3.174e-05,2.17e-06,0.0,0 STARLINK-5237,1 54196U 22141AR  24195.27631506  .00000217  00000-0  31740-4 0  9995,2 54196  53.2156 187.3219 0001376  85.8022 274.3128 15.08841327 94988,6917.876,95.437,540.693,538.789,0.0
54196.0,STARLINK-5237,PAYLOAD,2024-07-13 22:31:45,15.08834519,0.0001378,53.2154,184.3489,87.75,272.365,3.3809e-05,2.5e-06,0.0,0 STARLINK-5237,1 54196U 22141AR  24195.93872084  .00000250  00000-0  33809-4 0  9991,2 54196  53.2154 184.3489 0001378  87.7500 272.3650 15.08834519 94855,6917.897,95.438,540.715,538.809,0.0
54196.0,STARLINK-5237,PAYLOAD,2024-07-14 04:53:18,15.08832715,0.0001374,53.2156,183.1593,87.0774,273.0376,1.8559e-05,7e-08,0.0,0 STARLINK-5237,1 54196U 22141AR  24196.20368360  .00000007  00000-0  18559-4 0  9994,2 54196  53.2156 183.1593 0001374  87.0774 273.0376 15.08832715 95122,6917.903,95.438,540.718,538.817,0.0
54196.0,STARLINK-5237,PAYLOAD,2024-07-14 08:04:04,15.08835458,0.0001385,53.216,182.5645,86.6781,273.437,3.9253e-05,3.37e-06,0.0,0 STARLINK-5237,1 54196U 22141AR  24196.33616172  .00000337  00000-0  39253-4 0  9995,2 54196  53.2160 182.5645 0001385  86.6781 273.4370 15.08835458 94914,6917.894,95.438,540.717,538.801,0.0
54196.0,STARLINK-5237,PAYLOAD,2024-07-14 16:00:59,15.08837939,0.0001387,53.216,181.0777,86.645,273.4701,4.999e-05,5.08e-06,0.0,0 STARLINK-5237,1 54196U 22141AR  24196.66736055  .00000508  00000-0  49990-4 0  9993,2 54196  53.2160 181.0777 0001387  86.6450 273.4701 15.08837939 94968,6917.887,95.438,540.711,538.792,0.0
54196.0,STARLINK-5237,PAYLOAD,2024-07-15 04:44:04,15.08841837,0.0001393,53.2163,178.6988,88.339,271.7761,5.1996e-05,5.4e-06,0.0,0 STARLINK-5237,1 54196U 22141AR  24197.19727877  .00000540  00000-0  51996-4 0  9999,2 54196  53.2163 178.6988 0001393  88.3390 271.7761 15.08841837 95270,6917.875,95.437,540.703,538.776,0.0
54196.0,STARLINK-5237,PAYLOAD,2024-07-15 07:54:50,15.08845339,0.0001423,53.2167,178.1043,89.0198,271.0958,8.0273e-05,9.9e-06,0.0,0 STARLINK-5237,1 54196U 22141AR  24197.32975566  .00000990  00000-0  80273-4 0  9993,2 54196  53.2167 178.1043 0001423  89.0198 271.0958 15.08845339 95068,6917.864,95.437,540.713,538.745,0.0
54196.0,STARLINK-5237,PAYLOAD,2024-07-15 15:51:46,15.08840211,0.0001436,53.2169,176.6172,83.9666,276.1489,5.9818e-05,6.64e-06,0.0,0 STARLINK-5237,1 54196U 22141AR  24197.66095952  .00000664  00000-0  59818-4 0  9991,2 54196  53.2169 176.6172 0001436  83.9666 276.1489 15.08840211 95118,6917.88,95.438,540.738,538.751,0.0
54196.0,STARLINK-5237,PAYLOAD,2024-07-16 06:10:15,15.08838936,0.0001343,53.2158,173.9407,87.0448,273.0697,8.8006e-05,1.113e-05,0.0,0 STARLINK-5237,1 54196U 22141AR  24198.25711943  .00001113  00000-0  88006-4 0  9993,2 54196  53.2158 173.9407 0001343  87.0448 273.0697 15.08838936 95430,6917.884,95.438,540.678,538.82,0.0
54196.0,STARLINK-5237,PAYLOAD,2024-07-17 04:25:38,15.08850564,0.0001426,53.2169,169.776,92.2588,267.8568,6.7843e-05,7.92e-06,0.0,0 STARLINK-5237,1 54196U 22141AR  24199.18447095  .00000792  00000-0  67843-4 0  9998,2 54196  53.2169 169.7760 0001426  92.2588 267.8568 15.08850564 95576,6917.848,95.437,540.7,538.727,0.0
54196.0,STARLINK-5237,PAYLOAD,2024-07-17 07:36:24,15.08854359,0.0001364,53.2174,169.1804,99.3,260.8146,6.3605e-05,7.25e-06,0.0,0 STARLINK-5237,1 54196U 22141AR  24199.31694745  .00000725  00000-0  63605-4 0  9997,2 54196  53.2174 169.1804 0001364  99.3000 260.8146 15.08854359 95361,6917.836,95.437,540.645,538.758,0.0
54196.0,STARLINK-5237,PAYLOAD,2024-07-17 15:33:21,15.08836868,0.0001778,53.2162,167.6978,77.6914,282.4277,-4.8976e-05,-1.067e-05,0.0,0 STARLINK-5237,1 54196U 22141AR  24199.64816453 -.00001067  00000-0 -48976-4 0  9991,2 54196  53.2162 167.6978 0001778  77.6914 282.4277 15.08836868 95646,6917.89,95.438,540.985,538.525,0.0
54196.0,STARLINK-5237,PAYLOAD,2024-07-18 07:27:12,15.08836557,0.0001499,53.2181,164.7204,95.9259,264.1904,-2.586e-05,-6.99e-06,0.0,0 STARLINK-5237,1 54196U 22141AR  24200.31056536 -.00000699  00000-0 -25860-4 0  9993,2 54196  53.2181 164.7204 0001499  95.9259 264.1904 15.08836557 95517,6917.891,95.438,540.793,538.719,0.0
54196.0,STARLINK-5237,PAYLOAD,2024-07-19 04:07:12,15.08847789,0.0001611,53.2182,160.8547,100.8353,259.2821,2.6686e-05,1.37e-06,0.0,0 STARLINK-5237,1 54196U 22141AR  24201.17167824  .00000137  00000-0  26686-4 0  9993,2 54196  53.2182 160.8547 0001611 100.8353 259.2821 15.08847789 95873,6917.857,95.437,540.836,538.607,0.0
54196.0,STARLINK-5237,PAYLOAD,2024-07-20 03:58:00,15.08841824,0.0001364,53.2167,156.3987,95.1082,265.0066,7.7007e-05,9.38e-06,0.0,0 STARLINK-5237,1 54196U 22141AR  24202.16528320  .00000938  00000-0  77007-4 0  9997,2 54196  53.2167 156.3987 0001364  95.1082 265.0066 15.08841824 96022,6917.875,95.437,540.683,538.796,0.0
54196.0,STARLINK-5237,PAYLOAD,2024-07-20 13:30:19,15.08838515,0.0001366,53.2163,154.6122,92.3933,267.7215,7.5232e-05,9.1e-06,0.0,0 STARLINK-5237,1 54196U 22141AR  24202.56272634  .00000910  00000-0  75232-4 0  9993,2 54196  53.2163 154.6122 0001366  92.3933 267.7215 15.08838515 95854,6917.885,95.438,540.695,538.805,0.0
54196.0,STARLINK-5237,PAYLOAD,2024-07-21 03:48:49,15.08818882,0.0001427,53.2175,151.9372,109.9068,250.2078,-0.00011638,-2.139e-05,0.0,0 STARLINK-5237,1 54196U 22141AR  24203.15890857 -.00002139  00000-0 -11638-3 0  9998,2 54196  53.2175 151.9372 0001427 109.9068 250.2078 15.08818882 96171,6917.945,95.439,540.797,538.823,0.0
54196.0,STARLINK-5237,PAYLOAD,2024-07-21 05:24:12,15.08819178,0.0001439,53.2178,151.6397,109.3895,250.7252,-0.000112,-2.069e-05,0.0,0 STARLINK-5237,1 54196U 22141AR  24203.22514900 -.00002069  00000-0 -11200-3 0  9995,2 54196  53.2178 151.6397 0001439 109.3895 250.7252 15.08819178 95956,6917.944,95.439,540.805,538.814,0.0
54196.0,STARLINK-5237,PAYLOAD,2024-07-22 03:39:35,15.088415,0.0001157,53.2163,147.4773,113.2644,246.847,5.1882e-05,5.38e-06,0.0,0 STARLINK-5237,1 54196U 22141AR  24204.15249499  .00000538  00000-0  51882-4 0  9994,2 54196  53.2163 147.4773 0001157 113.2644 246.8470 15.08841500 96328,6917.876,95.437,540.541,538.94,0.0
54196.0,STARLINK-5237,PAYLOAD,2024-07-22 05:14:57,15.08854585,0.0001314,53.2161,147.1807,121.9013,238.2107,0.00019413,2.804e-05,0.0,0 STARLINK-5237,1 54196U 22141AR  24204.21872308  .00002804  00000-0  19413-3 0  9993,2 54196  53.2161 147.1807 0001314 121.9013 238.2107 15.08854585 96332,6917.836,95.437,540.61,538.792,0.0
54196.0,STARLINK-5237,PAYLOAD,2024-07-23 01:54:58,15.0884423,0.0001252,53.2172,143.3122,106.3885,253.7245,0.00029271,4.374e-05,0.0,0 STARLINK-5237,1 54196U 22141AR  24205.07984680  .00004374  00000-0  29271-3 0  9992,2 54196  53.2172 143.3122 0001252 106.3885 253.7245 15.08844230 96462,6917.867,95.437,540.599,538.866,0.0
54196.0,STARLINK-5237,PAYLOAD,2024-07-24 03:21:10,15.08835048,0.0001081,53.2172,138.56,103.4978,256.6134,-0.00016408,-2.898e-05,0.0,0 STARLINK-5237,1 54196U 22141AR  24206.13970837 -.00002898  00000-0 -16408-3 0  9998,2 54196  53.2172 138.5600 0001081 103.4978 256.6134 15.08835048 96624,6917.896,95.438,540.508,539.013,0.0
54196.0,STARLINK-5237,PAYLOAD,2024-07-24 19:15:01,15.08858372,0.0001464,53.216,135.5767,147.7777,212.3305,-0.00024363,-4.165e-05,0.0,0 STARLINK-5237,1 54196U 22141AR  24206.80209603 -.00004165  00000-0 -24363-3 0  9996,2 54196  53.2160 135.5767 0001464 147.7777 212.3305 15.08858372 96720,6917.824,95.436,540.702,538.676,0.0
